CUTE-1 (CO-55)          
1 27844U 03031E   26194.23954276  .00000158  00000+0  87036-4 0  9993
2 27844  98.6742 202.4711 0010799 107.7060 252.5299 14.24350794195386
CUBESAT XI-IV (CO-57)   
1 27848U 03031J   26193.53826736  .00000128  00000+0  75348-4 0  9998
2 27848  98.6772 201.4707 0010448 126.3839 233.8305 14.23633637194983
CUBESAT XI-V            
1 28895U 05043F   26193.88190763  .00000741  00000+0  12440-3 0  9992
2 28895  98.3010 350.0479 0015184 122.0632 238.2052 14.72699028105532
SWISSCUBE               
1 35932U 09051B   26194.30368549  .00000495  00000+0  10730-3 0  9998
2 35932  98.4011 102.6448 0007765 124.1169 236.0769 14.62528711892976
BEESAT-1                
1 35933U 09051C   26193.71071439  .00000393  00000+0  88659-4 0  9995
2 35933  98.3939 101.6234 0005984 136.3628 223.8047 14.61759519892911
ITUPSAT1                
1 35935U 09051E   26192.97035851  .00000388  00000+0  90106-4 0  9996
2 35935  98.4023 100.0372 0007861 152.4089 207.7529 14.60475983892353
TISAT 1                 
1 36799U 10035E   26194.30517391  .00012237  00000+0  39021-3 0  9996
2 36799  98.0709 143.1928 0004352 123.3845 236.7812 15.32685043871706
STRAND-1                
1 39090U 13009E   26193.46783720  .00000149  00000+0  64299-4 0  9999
2 39090  98.3932  13.0813 0009262 148.5894 211.5848 14.37177891700690
BRITE-AUSTRIA           
1 39091U 13009F   26193.97923961  .00000089  00000+0  44937-4 0  9999
2 39091  98.4006  12.7781 0010641 156.9749 203.1916 14.36551985700758
NEE-01 PEGASO           
1 39151U 13018B   26193.98892982  .00001057  00000+0  10536-3 0  9998
2 39151  98.1249 338.9978 0013696  80.7615 279.5152 14.93783715714554
POPACS 2                
1 39269U 13055E   26194.20595882  .00013879 -91286-6  22645-3 0  9997
2 39269  80.9920 114.4009 0415091 110.2648 254.3692 14.91964314667091
POPACS 3                
1 39270U 13055F   26194.29432352  .00008730  00000+0  20710-3 0  9997
2 39270  80.9984 200.8676 0549017 350.4712   8.6381 14.56628293642350
ZACUBE-1 (TSHEPISOSAT)  
1 39417U 13066B   26193.93520539  .00001450  00000+0  11530-3 0  9999
2 39417  97.8010 156.3996 0043901 162.4582 197.8170 15.01323430684592
WNISAT-1                
1 39423U 13066H   26194.22008676  .00000657  00000+0  12725-3 0  9997
2 39423  97.7231 341.5327 0163764 149.5045 211.5805 14.58117350670529
TRITON-1                
1 39427U 13066M   26194.29458090  .00000666  00000+0  85356-4 0  9998
2 39427  97.8227 103.5057 0090427 148.2519 212.4191 14.81789636677952
GOMX-1                  
1 39430U 13066Q   26194.26473751  .00000808  00000+0  12783-3 0  9991
2 39430  97.6476  33.0821 0128457 354.4286   5.5484 14.69539924673741
CUBEBUG-2 (LO-74)       
1 39440U 13066AA  26194.31983033  .00001926  00000+0  18122-3 0  9992
2 39440  97.8910 143.4139 0055889 301.7151  57.8628 14.93959309680893
NEE-02 KRYSAOR          
1 39441U 13066AB  26194.25618347  .00001256  00000+0  14228-3 0  9998
2 39441  97.8898 133.2874 0065600 345.6717  14.2636 14.86734124680073
FUNCUBE-1 (AO-73)       
1 39444U 13066AE  26194.17185030  .00003608  00000+0  22375-3 0  9995
2 39444  97.8287 166.1678 0038086 114.1842 246.3375 15.09803151683581
UWE-3                   
1 39446U 13066AG  26193.81399014  .00001937  00000+0  16916-3 0  9993
2 39446  97.8701 150.0656 0047510 232.8178 126.8701 14.97190018681416
BRITE-CA1 (TORONTO)     
1 40020U 14033L   26194.33209259  .00000545  00000+0  89506-4 0  9997
2 40020  97.9769 322.7828 0078296 192.2372 167.6936 14.72720389646068
DUCHIFAT-1              
1 40021U 14033M   26193.68571964  .00110396  00000+0  89146-3 0  9995
2 40021  98.0440 256.5455 0002164 257.9613 102.1405 15.70510170659743
NANOSATC-BR1            
1 40024U 14033Q   26193.55007700  .00010975  00000+0  35481-3 0  9991
2 40024  98.0714 228.1994 0005323 102.2683 257.9153 15.32271898657861
QB50P1                  
1 40025U 14033R   26193.52077436  .00005256  00000+0  25721-3 0  9994
2 40025  98.0964 206.4495 0010219 132.7489 227.4606 15.18640557656877
QB50P2                  
1 40032U 14033Y   26193.91930168  .00004130  00000+0  22191-3 0  9993
2 40032  98.0758 192.4084 0009350  90.0706 270.1596 15.15489609656561
PERSEUS-M2              
1 40037U 14033AD  26194.29040896  .00001744  00000+0  16251-3 0  9998
2 40037  97.9969 145.3648 0010699 205.3486 154.7211 14.95589247654683
PERSEUS-M1              
1 40039U 14033AF  26194.26127998  .00001321  00000+0  12398-3 0  9995
2 40039  97.9652 138.8236 0010804 203.0626 157.0111 14.95711123654532
